#dP2022  8 20  0  0  0.00000000      96 __u+U ITR00 FIT  IAC
## 2223 518400.00000000   900.00000000 59811 0.0000000000000
+  117   C06C07C08C09C10C11C12C13C14C16C19C20C21C22C23C24C25
+        C26C27C28C29C30C32C33C34C35C36C37C38C39C40C41C42C43
+        C44C45C46E01E02E03E04E05E07E08E09E10E11E12E13E14E15
+        E18E19E21E24E25E26E27E30E31E33E34E36G01G02G03G04G05
+        G06G07G08G09G10G11G12G13G14G15G16G17G18G19G20G21G22
+        G23G24G25G26G27G28G29G30G31G32J02J03R01R02R03R04R05
+        R07R08R09R11R12R13R14R15R17R18R19R20R21R24R25  0  0
++         7  8  6  7  8  6  7  7  8  7  7  6  7  7  7  7  7
++         7  7  6  7  7  7  6  6  6  8  6  8  9  7  6  7  6
++         7  8  7  5  6  7  7  7  8  8  6  8  7  7  7  7  6
++         7  6  6  5  6  7  6  7  5  5  6  6  5  6  6  6  7
++         6  7  5  5  5  6  5  8  6  5  6  6  6  5  3  5  7
++         6  6  6  5  5  5  6  7  5  6  8  8  5  5  7  6  7
++         7  7  7  7  7  7  7  7  7  6  8  7  6  8  8  0  0
%c M  cc GPS ccc cccc cccc cccc cccc ccccc ccccc ccccc ccccc
%c cc cc ccc ccc cccc cccc cccc cccc ccccc ccccc ccccc ccccc
%f  0.0000000  0.000000000  0.00000000000  0.000000000000000
%f  0.0000000  0.000000000  0.00000000000  0.000000000000000
%i    0    0    0    0      0      0      0      0         0
%i    0    0    0    0      0      0      0      0         0
/* INFORMATION & ANALYSIS CENTER (IAC)      ULTRA-RAPID DATA
/* S/V CLOCKS ARE ALIGNED TO GNSS TIME                      
/* G:C1WC2W R:C1PC2P E:C1XC5X C:C2IC6I J:C1CC2S             
/* PCV:IGS14_2218 OL/AL:FES2004  NONE     YN ORB:CoN CLK:CoN
*  2022 08 20  3 45  0.00000000
PC06 -18929.592683  29710.763998 -23315.765316    650.108045
PC07  -6654.563346  39561.347052 -12638.273133    -26.617878
PC08  -2051.959028  22166.100754  35813.767969    446.570976
PC09 -11424.866927  28563.639030 -28681.266434   -889.698761
PC10   -984.304867  41328.643379  -6432.917528    106.647770
PC11  12191.750326  10118.706615  23038.255419   -458.927013
PC12  -6079.803818  19334.427291  19204.352578   -545.269279
PC13   4426.975052  25663.050193  33353.005311     57.532573
PC14  11912.626660  20551.667126 -14585.132262    601.330551
PC16 -22148.347605  29222.449524 -20845.514331    142.018137
PC19 -15128.308634 -11359.968920  20539.648288   -468.359466
PC20  -7713.006715 -25639.197426   7930.314448    179.906990
PC21  -4930.516324  25425.682887  10369.100584   -222.337740
PC22 -14144.313459  10094.448968  21822.717518   -251.950961
PC23  22627.832774  -2218.318490  16194.404543   -967.943064
PC24  12452.404777  18892.976114 -16348.152214   -969.406451
PC25  25759.285562  10729.969293    831.831083   -690.378053
PC26  -5446.029878  15375.752065 -22650.858700    692.683187
PC27  14185.150799 -20343.527408 -12808.292390      8.007131
PC28  24264.631158 -13245.519047   3856.103184      3.298660
PC29 -20245.576005  -1597.754607 -19145.355404      2.220673
PC30  -4077.344602 -16254.115796 -22319.937491    502.273673
PC32   4768.239747 -25451.599073 -10410.520089   -738.340492
PC33  15193.378445  11344.462083 -20469.968912   -453.732304
PC34   5152.422720  15675.142177  22494.208918   -332.287091
PC35 -24057.352878  13224.406312  -5101.084034    420.413198
PC36 -25332.276369 -11697.915484   -249.382963   -968.272049
PC37   7178.023711 -14621.378630  22680.698587   -936.473283
PC38 -11150.232120  20346.565865  35208.183086     18.397753
PC39 -25247.056306  29937.543477 -15844.962355     -0.269263
PC40 -11416.381994  36924.501544 -16588.544973     -2.613588
PC41  14276.023473  -9610.162927 -21922.954104     -1.975135
PC42   7072.331193  26098.856561  -6814.926617   -145.589985
PC43  19851.580485   2378.931849  19451.136760      9.619985
PC44 -13621.374322  20885.090222  12543.712314     23.197547
PC45 -22381.045042   2403.214006 -16471.850562    839.524571
PC46 -14023.450308 -18662.340198  15273.282482   -496.008064
PE01  13509.856407  25833.913373  -5119.784959   -538.122405
PE02 -13616.551710 -25803.092925   4966.352057    319.459916
PE03  -3917.546782 -22611.498260  18701.064494   -591.267525
PE04  16429.699605   4950.619991 -24114.324337  -1097.277652
PE05  11159.906355 -27332.520841   2171.746272   -151.881843
PE07 -19518.886608  16087.429978  15369.522052   -698.148428
PE08 -16366.570821  -4719.604038  24206.684067   -584.289838
PE09  19401.494975 -16151.531997 -15467.515632   -629.082377
PE10  29514.223423  -1694.827424   1608.738096   -471.047898
PE11  27103.369779  -8088.637886  -8734.734455   2564.920393
PE12  27080.653728   4741.454406  10950.539621   -124.428674
PE13 -27444.022339   7673.535073   8000.281070    430.312826
PE14  19605.328532  -4690.645157  16354.085078  -1744.456346
PE15 -26999.596833  -4765.683487 -11153.856256    725.771020
PE18 -18681.219243  -7159.250766 -23329.972089  -1074.604004
PE19   1777.486107  24082.512801 -17113.963010  -4761.315336
PE21  -1209.706643  21985.901366 -19774.767163   -752.838944
PE24  16977.848795  -4188.856651  23879.947561   -790.487032
PE25   1474.657665 -21821.783577  19957.712779   -585.118310
PE26 -10811.225549  15782.037252  22581.666804  -1515.376381
PE27 -16311.445501   5340.028173 -24105.533749   -372.413612
PE30 -21575.853742 -15104.562336 -13501.680812   -768.712879
PE31  21682.222781  14278.839874  14232.253548   -501.982747
PE33  10636.700453  14321.748576  23617.449810   -453.736704
PE34 -10846.061655 -14259.903945 -23570.392408     -0.292204
PE36  11782.659606 -15504.589565 -22296.465033   -419.278296
PG01 -12575.051692 -13310.691607 -19673.593316    298.871947
PG02  -2951.329582  15465.952365  22060.537980   -648.626772
PG03 -12107.701411 -23670.017090  -1451.279046   -335.393384
PG04  -3748.034419 -18374.060241  18778.683386   -130.646012
PG05   3397.383608  22750.915331  12983.219484    -93.536017
PG06 -23177.838998   6901.843488  11130.899329    431.530396
PG07 -24651.701403  -6605.238571   8634.448787    313.490872
PG08   2703.506409 -22937.095249 -12831.753650    -81.206791
PG09 -13058.498463  -7990.953364  21631.886287   -306.177597
PG10  16694.871189   1245.402816 -20546.001394   -534.250707
PG11 -13409.395944  12484.748854  19214.508399    -11.848544
PG12   9254.943613  24790.387177  -3139.921020   -265.061917
PG13 -12120.584711  22597.052797  -6705.348061    371.220862
PG14 -17444.880284  -3070.522345 -19816.402769   -108.454312
PG15    486.755093  23263.041686 -12952.915161    -35.856378
PG16   3948.146964 -19664.631096  16899.487967   -521.196067
PG17 -18797.456952   7446.197608 -16817.496733    650.314302
PG18  24814.824704   5978.966533   7577.475887     76.181642
PG19 -19588.363422  14815.116885 -10037.527326    199.518359
PG20  -6667.238505  15528.672770  20543.234346    493.350423
PG21  -3351.642220 -14690.651142 -21289.291492    160.334360
PG22  18410.665663 -17571.050161  -6856.648242    312.929024
PG23  18793.581785  11423.034473 -14991.217362    -37.448272
PG24   8781.352252  14728.974710 -20681.755325    162.947802
PG25  17159.810433  18701.685671   7991.190690    362.795343
PG26  10457.680215 -12293.193583  20967.846350    224.557622
PG27  12275.256114 -23249.087524  -1905.591803    218.376479
PG28 -13267.242063   6679.539867 -21515.698823    340.590505
PG29  11703.155911   9022.046164  22020.368391   -544.336690
PG30 -26584.685873    892.749634  -2221.880981   -536.112170
PG31  22202.470548  -8027.087007  12474.308089   -190.293400
PG32  18675.853753 -10552.317712 -15387.421219   -208.841138
PJ02 -21520.801759  20070.324876 -25623.247588     -3.450290
PJ03 -29601.354990  28969.184705  12802.805212     -0.790356
PR01   9195.680447 -17169.261770 -16481.721540     13.416376
PR02   1938.126014 -25352.894198   1591.474329    527.413816
PR03  -6466.911784 -17656.883349  17246.951635     62.164542
PR04 -10812.240475   -362.975929  23124.802852    154.539119
PR05  -9483.338003  17172.698130  16326.565575     98.227450
PR07   6679.479598  17163.518654 -17637.623509     39.652200
PR08  10912.019341    216.574655 -23001.254589    -66.786861
PR09   5909.243345  15577.384669 -19263.634293     72.156427
PR11  21339.856428   8273.021307  11259.568195     29.901667
PR12  10866.489975  -5488.759410  22449.202224     20.214588
PR13  -4660.395848 -14956.956482  20123.705388    -25.903987
PR14 -18946.453417 -16312.967798   5132.704198     24.458649
PR15 -21070.505273  -7866.302112 -12014.595355     94.116755
PR17 -10842.221165  -6203.888139 -22227.435443    553.916232
PR18 -22257.671322   3942.761135 -11851.229747     38.365324
PR19 -22774.630190  10924.337733   3503.945812   -200.631989
PR20  -8301.791514  13054.603397  20294.610741    -76.840301
PR21  12277.174272   5271.183536  21732.037146   -326.972705
PR24   7103.316931 -13525.357740 -20422.144824    109.872651
PR25  22695.405682  -3217.789239  11205.584174     12.279807
EOF
